{"type": "FeatureCollection", "features": [ {"type": "Feature", "properties": {"norad_id": 30941, "name": "FENGYUN 1C DEB", "group": "fengyun-1c-debris", "lat": 27.840431712582287, "lon": -156.35629796810554, "alt_km": 784.664616667962, "timestamp": "2025-12-17T10:52:54.633100+00:00", "meta": {"OBJECT_NAME": "FENGYUN 1C DEB", "OBJECT_ID": "1999-025BAF", "EPOCH": "2025-12-16T12:56:12.185952", "MEAN_MOTION": 14.3107633, "ECCENTRICITY": 0.00338881, "INCLINATION": 98.5491, "RA_OF_ASC_NODE": 207.3009, "ARG_OF_PERICENTER": 306.0217, "MEAN_ANOMALY": 53.7827, "EPHEMERIS_TYPE": 0, "CLASSIFICATION_TYPE": "U", "NORAD_CAT_ID": 30941, "ELEMENT_SET_NO": 999, "REV_AT_EPOCH": 96680, "BSTAR": 0.0015073609, "MEAN_MOTION_DOT": 3.955e-05, "MEAN_MOTION_DDOT": 0}, "tle": {"line1": "1 30941U 99025BAF 25350.53902993  .00003955  00000+0  15074-2 0  9997", "line2": "2 30941  98.5491 207.3009 0033888 306.0217  53.7827 14.31076330966804"}}, "geometry": {"type": "Point", "coordinates": [-156.35629796810554, 27.840431712582287]}}, {"type": "Feature", "properties": {"norad_id": 30942, "name": "FENGYUN 1C DEB", "group": "fengyun-1c-debris", "lat": 57.68746202553866, "lon": -176.45714392185255, "alt_km": 749.1776697863143, "timestamp": "2025-12-17T10:52:54.633110+00:00", "meta": {"OBJECT_NAME": "FENGYUN 1C DEB", "OBJECT_ID": "1999-025BAG", "EPOCH": "2025-12-16T18:08:59.972352", "MEAN_MOTION": 14.1484202, "ECCENTRICITY": 0.01380243, "INCLINATION": 98.6797, "RA_OF_ASC_NODE": 348.8885, "ARG_OF_PERICENTER": 94.8865, "MEAN_ANOMALY": 76.6147, "EPHEMERIS_TYPE": 0, "CLASSIFICATION_TYPE": "U", "NORAD_CAT_ID": 30942, "ELEMENT_SET_NO": 999, "REV_AT_EPOCH": 96701, "BSTAR": 0.0002068947, "MEAN_MOTION_DOT": 3.96e-06, "MEAN_MOTION_DDOT": 0}, "tle": {"line1": "1 30942U 99025BAG 25350.75624968  .00000396  00000+0  20689-3 0  9990", "line2": "2 30942  98.6797 348.8885 0138024  94.8865  76.6147 14.14842020967018"}}, "geometry": {"type": "Point", "coordinates": [-176.45714392185255, 57.68746202553866]}}, {"type": "Feature", "properties": {"norad_id": 30943, "name": "FENGYUN 1C DEB", "group": "fengyun-1c-debris", "lat": -74.51330997939041, "lon": 39.20583874566908, "alt_km": 909.0649886168776, "timestamp": "2025-12-17T10:52:54.633121+00:00", "meta": {"OBJECT_NAME": "FENGYUN 1C DEB", "OBJECT_ID": "1999-025BAH", "EPOCH": "2025-12-16T06:11:00.155616", "MEAN_MOTION": 14.04492174, "ECCENTRICITY": 0.00507402, "INCLINATION": 98.7971, "RA_OF_ASC_NODE": 4.0685, "ARG_OF_PERICENTER": 56.0453, "MEAN_ANOMALY": 304.5522, "EPHEMERIS_TYPE": 0, "CLASSIFICATION_TYPE": "U", "NORAD_CAT_ID": 30943, "ELEMENT_SET_NO": 999, "REV_AT_EPOCH": 95791, "BSTAR": 0.00044951909, "MEAN_MOTION_DOT": 6.83e-06, "MEAN_MOTION_DDOT": 0}, "tle": {"line1": "1 30943U 99025BAH 25350.25764069  .00000683  00000+0  44952-3 0  9991", "line2": "2 30943  98.7971   4.0685 0050740  56.0453 304.5522 14.04492174957912"}}, "geometry": {"type": "Point", "coordinates": [39.20583874566908, -74.51330997939041]}}, {"type": "Feature", "properties": {"norad_id": 30944, "name": "FENGYUN 1C DEB", "group": "fengyun-1c-debris", "lat": -19.14992746847187, "lon": -135.6932934276027, "alt_km": 762.4437248261393, "timestamp": "2025-12-17T10:52:54.633131+00:00", "meta": {"OBJECT_NAME": "FENGYUN 1C DEB", "OBJECT_ID": "1999-025BAJ", "EPOCH": "2025-12-16T09:27:37.279008", "MEAN_MOTION": 14.52449128, "ECCENTRICITY": 0.0149266, "INCLINATION": 98.8504, "RA_OF_ASC_NODE": 46.2915, "ARG_OF_PERICENTER": 89.6704, "MEAN_ANOMALY": 332.7091, "EPHEMERIS_TYPE": 0, "CLASSIFICATION_TYPE": "U", "NORAD_CAT_ID": 30944, "ELEMENT_SET_NO": 999, "REV_AT_EPOCH": 99129, "BSTAR": 0.00013602966, "MEAN_MOTION_DOT": 5.85e-06, "MEAN_MOTION_DDOT": 0}, "tle": {"line1": "1 30944U 99025BAJ 25350.39418147  .00000585  00000+0  13603-3 0  9990", "line2": "2 30944  98.8504  46.2915 0149266  89.6704 332.7091 14.52449128991290"}}, "geometry": {"type": "Point", "coordinates": [-135.6932934276027, -19.14992746847187]}}, {"type": "Feature", "properties": {"norad_id": 30945, "name": "FENGYUN 1C DEB", "group": "fengyun-1c-debris", "lat": -73.23447125390875, "lon": 33.803957967227625, "alt_km": 804.0266678070348, "timestamp": "2025-12-17T10:52:54.633151+00:00", "meta": {"OBJECT_NAME": "FENGYUN 1C DEB", "OBJECT_ID": "1999-025BAK", "EPOCH": "2025-12-16T06:45:55.175904", "MEAN_MOTION": 14.29744942, "ECCENTRICITY": 0.00305457, "INCLINATION": 99.3902, "RA_OF_ASC_NODE": 359.2236, "ARG_OF_PERICENTER": 28.5823, "MEAN_ANOMALY": 349.1653, "EPHEMERIS_TYPE": 0, "CLASSIFICATION_TYPE": "U", "NORAD_CAT_ID": 30945, "ELEMENT_SET_NO": 999, "REV_AT_EPOCH": 96488, "BSTAR": 0.0012467125, "MEAN_MOTION_DOT": 3.167e-05, "MEAN_MOTION_DDOT": 0}, "tle": {"line1": "1 30945U 99025BAK 25350.28188861  .00003167  00000+0  12467-2 0  9991", "line2": "2 30945  99.3902 359.2236 0030545  28.5823 349.1653 14.29744942964882"}}, "geometry": {"type": "Point", "coordinates": [33.803957967227625, -73.23447125390875]}}, {"type": "Feature", "properties": {"norad_id": 30946, "name": "FENGYUN 1C DEB", "group": "fengyun-1c-debris", "lat": -11.478329222243378, "lon": -74.88348123301411, "alt_km": 673.8196194920438, "timestamp": "2025-12-17T10:52:54.633164+00:00", "meta": {"OBJECT_NAME": "FENGYUN 1C DEB", "OBJECT_ID": "1999-025BAL", "EPOCH": "2025-12-16T14:11:22.301376", "MEAN_MOTION": 14.48171922, "ECCENTRICITY": 0.00894626, "INCLINATION": 99.0377, "RA_OF_ASC_NODE": 106.0471, "ARG_OF_PERICENTER": 181.4399, "MEAN_ANOMALY": 197.5066, "EPHEMERIS_TYPE": 0, "CLASSIFICATION_TYPE": "U", "NORAD_CAT_ID": 30946, "ELEMENT_SET_NO": 999, "REV_AT_EPOCH": 98407, "BSTAR": 0.0006006288, "MEAN_MOTION_DOT": 2.301e-05, "MEAN_MOTION_DDOT": 0}, "tle": {"line1": "1 30946U 99025BAL 25350.59123034  .00002301  00000+0  60063-3 0  9992", "line2": "2 30946  99.0377 106.0471 0089462 181.4399 197.5066 14.48171922984073"}}, "geometry": {"type": "Point", "coordinates": [-74.88348123301411, -11.478329222243378]}}, {"type": "Feature", "properties": {"norad_id": 30947, "name": "FENGYUN 1C DEB", "group": "fengyun-1c-debris", "lat": 80.77184805749978, "lon": 133.8335304177765, "alt_km": 810.2561829951183, "timestamp": "2025-12-17T10:52:54.633174+00:00", "meta": {"OBJECT_NAME": "FENGYUN 1C DEB", "OBJECT_ID": "1999-025BAM", "EPOCH": "2025-12-16T16:04:33.851136", "MEAN_MOTION": 14.38048926, "ECCENTRICITY": 0.00956227, "INCLINATION": 98.8082, "RA_OF_ASC_NODE": 240.4059, "ARG_OF_PERICENTER": 235.9584, "MEAN_ANOMALY": 123.2495, "EPHEMERIS_TYPE": 0, "CLASSIFICATION_TYPE": "U", "NORAD_CAT_ID": 30947, "ELEMENT_SET_NO": 999, "REV_AT_EPOCH": 98549, "BSTAR": 0.00025779417, "MEAN_MOTION_DOT": 7.74e-06, "MEAN_MOTION_DDOT": 0}, "tle": {"line1": "1 30947U 99025BAM 25350.66983624  .00000774  00000+0  25779-3 0  9997", "line2": "2 30947  98.8082 240.4059 0095622 235.9584 123.2495 14.38048926985490"}}, "geometry": {"type": "Point", "coordinates": [133.8335304177765, 80.77184805749978]}}, {"type": "Feature", "properties": {"norad_id": 30949, "name": "FENGYUN 1C DEB", "group": "fengyun-1c-debris", "lat": -24.477713652021876, "lon": -10.324794351419468, "alt_km": 785.3940222910996, "timestamp": "2025-12-17T10:52:54.633184+00:00", "meta": {"OBJECT_NAME": "FENGYUN 1C DEB", "OBJECT_ID": "1999-025BAP", "EPOCH": "2025-12-16T18:52:20.990784", "MEAN_MOTION": 14.14052781, "ECCENTRICITY": 0.01162464, "INCLINATION": 98.6978, "RA_OF_ASC_NODE": 345.0297, "ARG_OF_PERICENTER": 298.2006, "MEAN_ANOMALY": 242.4901, "EPHEMERIS_TYPE": 0, "CLASSIFICATION_TYPE": "U", "NORAD_CAT_ID": 30949, "ELEMENT_SET_NO": 999, "REV_AT_EPOCH": 96573, "BSTAR": 0.00024167758, "MEAN_MOTION_DOT": 4.46e-06, "MEAN_MOTION_DDOT": 0}, "tle": {"line1": "1 30949U 99025BAP 25350.78635406  .00000446  00000+0  24168-3 0  9991", "line2": "2 30949  98.6978 345.0297 0116246 298.2006 242.4901 14.14052781965736"}}, "geometry": {"type": "Point", "coordinates": [-10.324794351419468, -24.477713652021876]}}, {"type": "Feature", "properties": {"norad_id": 30954, "name": "FENGYUN 1C DEB", "group": "fengyun-1c-debris", "lat": 31.38630988075906, "lon": 86.08955277099867, "alt_km": 913.5567083579735, "timestamp": "2025-12-17T10:52:54.633194+00:00", "meta": {"OBJECT_NAME": "FENGYUN 1C DEB", "OBJECT_ID": "1999-025BAU", "EPOCH": "2025-12-16T06:01:05.563776", "MEAN_MOTION": 14.14948875, "ECCENTRICITY": 0.0128828, "INCLINATION": 98.7125, "RA_OF_ASC_NODE": 90.283, "ARG_OF_PERICENTER": 177.3649, "MEAN_ANOMALY": 212.7837, "EPHEMERIS_TYPE": 0, "CLASSIFICATION_TYPE": "U", "NORAD_CAT_ID": 30954, "ELEMENT_SET_NO": 999, "REV_AT_EPOCH": 96437, "BSTAR": 0.0007414891, "MEAN_MOTION_DOT": 1.511e-05, "MEAN_MOTION_DDOT": 0}, "tle": {"line1": "1 30954U 99025BAU 25350.25075884  .00001511  00000+0  74149-3 0  9995", "line2": "2 30954  98.7125  90.2830 0128828 177.3649 212.7837 14.14948875964373"}}, "geometry": {"type": "Point", "coordinates": [86.08955277099867, 31.38630988075906]}}, {"type": "Feature", "properties": {"norad_id": 30956, "name": "FENGYUN 1C DEB", "group": "fengyun-1c-debris", "lat": 17.214439650489194, "lon": 22.63872449021313, "alt_km": 821.6004514226142, "timestamp": "2025-12-17T10:52:54.633204+00:00", "meta": {"OBJECT_NAME": "FENGYUN 1C DEB", "OBJECT_ID": "1999-025BAW", "EPOCH": "2025-12-15T13:40:42.851424", "MEAN_MOTION": 14.14218395, "ECCENTRICITY": 0.00491654, "INCLINATION": 98.7603, "RA_OF_ASC_NODE": 23.5305, "ARG_OF_PERICENTER": 334.7072, "MEAN_ANOMALY": 178.6573, "EPHEMERIS_TYPE": 0, "CLASSIFICATION_TYPE": "U", "NORAD_CAT_ID": 30956, "ELEMENT_SET_NO": 999, "REV_AT_EPOCH": 96347, "BSTAR": 0.00084630063, "MEAN_MOTION_DOT": 1.59e-05, "MEAN_MOTION_DDOT": 0}, "tle": {"line1": "1 30956U 99025BAW 25349.56994041  .00001590  00000+0  84630-3 0  9997", "line2": "2 30956  98.7603  23.5305 0049165 334.7072 178.6573 14.14218395963471"}}, "geometry": {"type": "Point", "coordinates": [22.63872449021313, 17.214439650489194]}}]}